{
  "type": "FeatureCollection",
  "features": [
    {
      "type": "Feature",
      "properties": {
        "companyName": "EMELNORTE",
        "id": "EME",
        "potencia": "102 MW",
        "region": "Norte",
        "clientes": 425000
      },
      "geometry": {
        "type": "Polygon",
        "coordinates": [
          [
            [-78.9, 0.9],
            [-78.2, 1.1],
            [-77.9, 0.8],
            [-77.6, 0.3],
            [-77.8, -0.1],
            [-78.1, -0.2],
            [-78.4, 0.1],
            [-78.7, 0.2],
            [-78.9, 0.9]
          ]
        ]
      }
    },
    {
      "type": "Feature",
      "properties": {
        "companyName": "E.E. QUITO",
        "id": "QUI",
        "potencia": "671 MW",
        "region": "Pichincha",
        "clientes": 1200000
      },
      "geometry": {
        "type": "Polygon",
        "coordinates": [
          [
            [-78.7, 0.2],
            [-78.1, -0.2],
            [-78.0, -0.4],
            [-78.2, -0.7],
            [-78.6, -0.8],
            [-79.0, -0.5],
            [-78.9, 0.0],
            [-78.7, 0.2]
          ]
        ]
      }
    },
    {
      "type": "Feature",
      "properties": {
        "companyName": "ELEPCO (E.E. Cotopaxi)",
        "id": "COT",
        "potencia": "107 MW",
        "region": "Cotopaxi",
        "clientes": 280000
      },
      "geometry": {
        "type": "Polygon",
        "coordinates": [
          [
            [-79.0, -0.5],
            [-78.6, -0.8],
            [-78.3, -1.0],
            [-78.5, -1.3],
            [-79.1, -1.4],
            [-79.3, -1.0],
            [-79.2, -0.7],
            [-79.0, -0.5]
          ]
        ]
      }
    },
    {
      "type": "Feature",
      "properties": {
        "companyName": "E.E. AMBATO",
        "id": "AMB",
        "potencia": "112 MW",
        "region": "Tungurahua",
        "clientes": 350000
      },
      "geometry": {
        "type": "Polygon",
        "coordinates": [
          [
            [-78.6, -1.0],
            [-78.3, -1.0],
            [-78.1, -1.3],
            [-78.2, -1.6],
            [-78.5, -1.7],
            [-78.8, -1.5],
            [-78.9, -1.2],
            [-78.6, -1.0]
          ]
        ]
      }
    },
    {
      "type": "Feature",
      "properties": {
        "companyName": "CNEL BOLÍVAR",
        "id": "BOL",
        "potencia": "13 MW",
        "region": "Bolívar",
        "clientes": 85000
      },
      "geometry": {
        "type": "Polygon",
        "coordinates": [
          [
            [-79.3, -1.0],
            [-79.1, -1.4],
            [-78.8, -1.5],
            [-78.9, -1.8],
            [-79.2, -2.0],
            [-79.5, -1.8],
            [-79.4, -1.3],
            [-79.3, -1.0]
          ]
        ]
      }
    },
    {
      "type": "Feature",
      "properties": {
        "companyName": "E.E. RIOBAMBA",
        "id": "RIO",
        "potencia": "63 MW",
        "region": "Chimborazo",
        "clientes": 190000
      },
      "geometry": {
        "type": "Polygon",
        "coordinates": [
          [
            [-78.8, -1.5],
            [-78.5, -1.7],
            [-78.2, -1.6],
            [-78.0, -1.9],
            [-78.2, -2.3],
            [-78.7, -2.4],
            [-79.0, -2.1],
            [-78.9, -1.8],
            [-78.8, -1.5]
          ]
        ]
      }
    },
    {
      "type": "Feature",
      "properties": {
        "companyName": "E.E. CENTRO SUR",
        "id": "CSU",
        "potencia": "176 MW",
        "region": "Azuay-Cañar",
        "clientes": 485000
      },
      "geometry": {
        "type": "Polygon",
        "coordinates": [
          [
            [-79.0, -2.1],
            [-78.7, -2.4],
            [-78.2, -2.3],
            [-78.0, -2.6],
            [-78.1, -3.1],
            [-78.6, -3.4],
            [-79.2, -3.3],
            [-79.5, -2.8],
            [-79.4, -2.3],
            [-79.0, -2.1]
          ]
        ]
      }
    },
    {
      "type": "Feature",
      "properties": {
        "companyName": "E.E. AZOGUES",
        "id": "AZO",
        "potencia": "14 MW",
        "region": "Cañar",
        "clientes": 68000
      },
      "geometry": {
        "type": "Polygon",
        "coordinates": [
          [
            [-78.7, -2.4],
            [-78.4, -2.5],
            [-78.2, -2.7],
            [-78.4, -2.9],
            [-78.7, -2.8],
            [-78.8, -2.6],
            [-78.7, -2.4]
          ]
        ]
      }
    },
    {
      "type": "Feature",
      "properties": {
        "companyName": "E.E. REGIONAL SUR",
        "id": "RSU",
        "potencia": "145 MW",
        "region": "Sur",
        "clientes": 180000
      },
      "geometry": {
        "type": "Polygon",
        "coordinates": [
          [
            [-79.5, -2.8],
            [-79.2, -3.3],
            [-78.6, -3.4],
            [-78.1, -3.1],
            [-78.0, -3.8],
            [-78.3, -4.2],
            [-79.0, -4.5],
            [-79.6, -4.3],
            [-79.8, -3.8],
            [-79.7, -3.2],
            [-79.5, -2.8]
          ]
        ]
      }
    },
    {
      "type": "Feature",
      "properties": {
        "companyName": "CNEL ESMERALDAS",
        "id": "ESM",
        "potencia": "91 MW",
        "region": "Esmeraldas",
        "clientes": 240000
      },
      "geometry": {
        "type": "Polygon",
        "coordinates": [
          [
            [-79.9, 1.6],
            [-79.2, 1.7],
            [-78.9, 1.4],
            [-78.2, 1.1],
            [-78.5, 0.8],
            [-78.9, 0.9],
            [-79.4, 0.9],
            [-80.0, 1.2],
            [-79.9, 1.6]
          ]
        ]
      }
    },
    {
      "type": "Feature",
      "properties": {
        "companyName": "CNEL SANTO DOMINGO",
        "id": "SDO",
        "potencia": "121 MW",
        "region": "Santo Domingo",
        "clientes": 415000
      },
      "geometry": {
        "type": "Polygon",
        "coordinates": [
          [
            [-79.4, 0.0],
            [-79.0, -0.5],
            [-79.2, -0.7],
            [-79.6, -0.8],
            [-79.8, -0.5],
            [-79.7, -0.1],
            [-79.5, 0.2],
            [-79.4, 0.0]
          ]
        ]
      }
    },
    {
      "type": "Feature",
      "properties": {
        "companyName": "CNEL MANABÍ",
        "id": "MAN",
        "potencia": "311 MW",
        "region": "Manabí",
        "clientes": 780000
      },
      "geometry": {
        "type": "Polygon",
        "coordinates": [
          [
            [-81.0, 0.5],
            [-80.8, 0.2],
            [-79.8, -0.5],
            [-79.6, -0.8],
            [-79.5, -1.2],
            [-79.8, -1.6],
            [-80.5, -1.8],
            [-80.9, -1.5],
            [-81.2, -1.0],
            [-81.3, -0.2],
            [-81.0, 0.5]
          ]
        ]
      }
    },
    {
      "type": "Feature",
      "properties": {
        "companyName": "CNEL LOS RÍOS",
        "id": "LRI",
        "potencia": "76 MW",
        "region": "Los Ríos",
        "clientes": 320000
      },
      "geometry": {
        "type": "Polygon",
        "coordinates": [
          [
            [-79.8, -1.2],
            [-79.5, -1.2],
            [-79.2, -1.5],
            [-79.0, -1.8],
            [-79.2, -2.0],
            [-79.5, -2.1],
            [-79.8, -2.0],
            [-80.0, -1.7],
            [-79.9, -1.4],
            [-79.8, -1.2]
          ]
        ]
      }
    },
    {
      "type": "Feature",
      "properties": {
        "companyName": "CNEL GUAYAS LOS RÍOS",
        "id": "GLR",
        "potencia": "538 MW",
        "region": "Guayas-Los Ríos",
        "clientes": 965000
      },
      "geometry": {
        "type": "Polygon",
        "coordinates": [
          [
            [-80.0, -1.7],
            [-79.8, -2.0],
            [-79.5, -2.1],
            [-79.4, -2.3],
            [-79.6, -2.6],
            [-80.0, -2.8],
            [-80.3, -2.7],
            [-80.4, -2.3],
            [-80.2, -1.9],
            [-80.0, -1.7]
          ]
        ]
      }
    },
    {
      "type": "Feature",
      "properties": {
        "companyName": "CNEL GUAYAQUIL",
        "id": "GYE",
        "potencia": "864 MW",
        "region": "Guayas",
        "clientes": 2100000
      },
      "geometry": {
        "type": "Polygon",
        "coordinates": [
          [
            [-80.2, -1.9],
            [-80.4, -2.3],
            [-80.3, -2.7],
            [-80.0, -2.8],
            [-79.8, -2.5],
            [-79.6, -2.2],
            [-79.8, -1.9],
            [-80.0, -1.8],
            [-80.2, -1.9]
          ]
        ]
      }
    },
    {
      "type": "Feature",
      "properties": {
        "companyName": "CNEL MILAGRO",
        "id": "MIL",
        "potencia": "149 MW",
        "region": "Guayas",
        "clientes": 385000
      },
      "geometry": {
        "type": "Polygon",
        "coordinates": [
          [
            [-79.8, -2.0],
            [-79.6, -2.2],
            [-79.4, -2.3],
            [-79.2, -2.5],
            [-79.4, -2.8],
            [-79.7, -2.9],
            [-79.9, -2.7],
            [-80.0, -2.4],
            [-79.8, -2.0]
          ]
        ]
      }
    },
    {
      "type": "Feature",
      "properties": {
        "companyName": "CNEL SANTA ELENA",
        "id": "SEL",
        "potencia": "77 MW",
        "region": "Santa Elena",
        "clientes": 165000
      },
      "geometry": {
        "type": "Polygon",
        "coordinates": [
          [
            [-81.3, -2.0],
            [-80.9, -2.1],
            [-80.4, -2.3],
            [-80.3, -2.7],
            [-80.6, -2.9],
            [-81.2, -2.8],
            [-81.5, -2.4],
            [-81.4, -2.1],
            [-81.3, -2.0]
          ]
        ]
      }
    },
    {
      "type": "Feature",
      "properties": {
        "companyName": "CNEL EL ORO",
        "id": "ORO",
        "potencia": "236 MW",
        "region": "El Oro",
        "clientes": 640000
      },
      "geometry": {
        "type": "Polygon",
        "coordinates": [
          [
            [-80.6, -2.9],
            [-80.3, -2.7],
            [-80.0, -2.8],
            [-79.6, -3.0],
            [-79.5, -3.4],
            [-79.8, -3.8],
            [-80.2, -4.0],
            [-80.8, -4.1],
            [-81.0, -3.8],
            [-80.9, -3.2],
            [-80.6, -2.9]
          ]
        ]
      }
    },
    {
      "type": "Feature",
      "properties": {
        "companyName": "CNEL SUCUMBÍOS",
        "id": "SUC",
        "potencia": "116 MW",
        "region": "Sucumbíos",
        "clientes": 195000
      },
      "geometry": {
        "type": "Polygon",
        "coordinates": [
          [
            [-77.6, 0.3],
            [-76.5, 0.5],
            [-76.0, 0.2],
            [-75.8, -0.2],
            [-76.2, -0.6],
            [-77.0, -0.7],
            [-77.5, -0.4],
            [-77.8, -0.1],
            [-77.6, 0.3]
          ]
        ]
      }
    },
    {
      "type": "Feature",
      "properties": {
        "companyName": "ELECGALÁPAGOS",
        "id": "GAL",
        "potencia": "25 MW",
        "region": "Galápagos",
        "clientes": 32000
      },
      "geometry": {
        "type": "MultiPolygon",
        "coordinates": [
          [
            [
              [-91.8, -0.8],
              [-91.5, -0.5],
              [-91.2, -0.7],
              [-91.1, -1.0],
              [-91.4, -1.2],
              [-91.8, -0.8]
            ]
          ],
          [
            [
              [-90.5, -0.2],
              [-90.1, 0.0],
              [-89.8, -0.3],
              [-90.0, -0.6],
              [-90.3, -0.5],
              [-90.5, -0.2]
            ]
          ],
          [
            [
              [-89.5, 0.3],
              [-89.2, 0.5],
              [-89.0, 0.2],
              [-89.2, -0.1],
              [-89.5, 0.0],
              [-89.5, 0.3]
            ]
          ]
        ]
      }
    }
  ]
}